NORAD_CAT_ID,OBJECT_NAME,OBJECT_TYPE,EPOCH,MEAN_MOTION,ECCENTRICITY,INCLINATION,RA_OF_ASC_NODE,ARG_OF_PERICENTER,MEAN_ANOMALY,BSTAR,MEAN_MOTION_DOT,MEAN_MOTION_DDOT,TLE_LINE0,TLE_LINE1,TLE_LINE2,SEMIMAJOR_AXIS,PERIOD,APOGEE,PERIGEE,DECAYED
52879.0,STARLINK-4139,PAYLOAD,2022-08-28 22:00:00,15.73318016,0.0003771,53.2163,46.5845,5.9998,95.6998,-0.004927,-0.00645345,0.0,0 STARLINK-4139,1 52879U 22062BB  22240.91667824 -.00645345  00000-0 -49270-2 0  9999,2 52879  53.2163  46.5845 0003771   5.9998  95.6998 15.73318016 11893,6727.559,91.526,351.961,346.88699999999994,0.0
52879.0,STARLINK-4139,PAYLOAD,2022-08-29 06:00:02,15.73102874,0.0003636,53.2178,44.9329,5.1877,185.3031,-0.0079498,-0.01005983,0.0,0 STARLINK-4139,1 52879U 22062BB  22241.25002315 -.01005983  00000-0 -79498-2 0  9999,2 52879  53.2178  44.9329 0003636   5.1877 185.3031 15.73102874 11940,6728.172,91.539,352.483,347.591,0.0
52879.0,STARLINK-4139,PAYLOAD,2022-08-29 14:00:01,15.72377642,0.0003563999999999,53.2176,43.2875,3.8883,274.9071,-0.0086598999999999,-0.0105656,0.0,0 STARLINK-4139,1 52879U 22062BB  22241.58334491 -.01056560  00000-0 -86599-2 0  9995,2 52879  53.2176  43.2875 0003564   3.8883 274.9071 15.72377642  1302,6730.241,91.581,354.504,349.707,0.0
52879.0,STARLINK-4139,PAYLOAD,2022-08-29 22:00:00,15.71614939,0.0003921,53.2174,41.6457,358.7873,7.4795,-0.0088893,-0.01050602,0.0,0 STARLINK-4139,1 52879U 22062BB  22241.91667824 -.01050602  00000-0 -88893-2 0  9991,2 52879  53.2174  41.6457 0003921 358.7873   7.4795 15.71614939  1300,6732.418000000002,91.625,356.923,351.64300000000014,0.0
52879.0,STARLINK-4139,PAYLOAD,2022-08-30 14:00:01,15.70210744,0.0002360999999999,53.2177,38.3621,278.9325,259.4788,-0.010897,-0.01214889,0.0,0 STARLINK-4139,1 52879U 22062BB  22242.58334491 -.01214889  00000-0 -10897-1 0  9993,2 52879  53.2177  38.3621 0002361 278.9325 259.4788 15.70210744  1307,6736.431,91.707,359.88699999999994,356.706,0.0
52879.0,STARLINK-4139,PAYLOAD,2022-08-30 22:00:00,15.69438847,0.0001088999999999,53.217,36.7261,328.2531,294.8938,-0.011015,-0.01190901,0.0,0 STARLINK-4139,1 52879U 22062BB  22242.91667824 -.01190901  00000-0 -11015-1 0  9990,2 52879  53.2170  36.7261 0001089 328.2531 294.8938 15.69438847 12212,6738.64,91.753,361.239,359.771,0.0
52879.0,STARLINK-4139,PAYLOAD,2022-08-31 14:00:01,15.67819141,0.0001545,53.2175,33.457,36.7859,33.1468,-0.010444,-0.01051589,0.0,0 STARLINK-4139,1 52879U 22062BB  22243.58334491 -.01051589  00000-0 -10444-1 0  9998,2 52879  53.2175  33.4570 0001545  36.7859  33.1468 15.67819141  1303,6743.28,91.847,366.187,364.103,0.0
52879.0,STARLINK-4139,PAYLOAD,2022-08-31 20:00:01,15.67247864,0.0001167,53.2175,32.234,55.6916,345.8230000000001,-0.010662,-0.01048799,0.0,0 STARLINK-4139,1 52879U 22062BB  22243.83334491 -.01048799  00000-0 -10662-1 0  9997,2 52879  53.2175  32.2340 0001167  55.6916 345.8230 15.67247864 12353,6744.919,91.881,367.571,365.997,0.0
52879.0,STARLINK-4139,PAYLOAD,2022-08-31 22:00:00,15.67057665,0.0001291,53.2173,31.826,57.8464,94.0815,-0.010731,-0.01047583,0.0,0 STARLINK-4139,1 52879U 22062BB  22243.91667824 -.01047583  00000-0 -10731-1 0  9992,2 52879  53.2173  31.8260 0001291  57.8464  94.0815 15.67057665  1300,6745.464,91.892,368.2,366.459,0.0
52879.0,STARLINK-4139,PAYLOAD,2022-09-01 14:00:01,15.65577544,0.0001135,53.2177,28.5644,60.4214,252.8057,-0.011998,-0.01114675,0.0,0 STARLINK-4139,1 52879U 22062BB  22244.58335648 -.01114675  00000-0 -11998-1 0  9995,2 52879  53.2177  28.5644 0001135  60.4214 252.8057 15.65577544  1306,6749.715,91.979,372.346,370.814,0.0
52879.0,STARLINK-4139,PAYLOAD,2022-09-01 22:00:00,15.64781154,0.0001167,53.2171,26.941,52.8538,339.5827,-0.01179,-0.01049314,0.0,0 STARLINK-4139,1 52879U 22062BB  22244.91667824 -.01049314  00000-0 -11790-1 0  9993,2 52879  53.2171  26.9410 0001167  52.8538 339.5827 15.64781154  1303,6752.005,92.026,374.658,373.082,0.0
52879.0,STARLINK-4139,PAYLOAD,2022-09-02 14:00:01,15.63258866,0.0001607,53.2175,23.693,43.8196,144.395,-0.012463,-0.0104459999999999,0.0,0 STARLINK-4139,1 52879U 22062BB  22245.58334491 -.01044600  00000-0 -12463-1 0  9999,2 52879  53.2175  23.6930 0001607  43.8196 144.3950 15.63258866 12621,6756.388000000001,92.115,379.339,377.167,0.0
52879.0,STARLINK-4139,PAYLOAD,2022-09-02 22:00:01,15.62502848,0.0001222,53.2171,22.0726,61.2095,203.5876,-0.012906,-0.01065582,0.0,0 STARLINK-4139,1 52879U 22062BB  22245.91668981 -.01065582  00000-0 -12906-1 0  9994,2 52879  53.2171  22.0726 0001222  61.2095 203.5876 15.62502848  1307,6758.566999999999,92.16,381.258,379.606,0.0
52879.0,STARLINK-4139,PAYLOAD,2022-09-03 08:00:01,15.61557963,0.0001491,53.2173,20.0458,41.1215,47.9759,-0.01348,-0.0107201,0.0,0 STARLINK-4139,1 52879U 22062BB  22246.33334491 -.01072010  00000-0 -13480-1 0  9999,2 52879  53.2173  20.0458 0001491  41.1215  47.9759 15.61557963 12745,6761.293000000002,92.216,384.166,382.15,0.0
52879.0,STARLINK-4139,PAYLOAD,2022-09-03 14:00:01,15.60983597,0.000152,53.2175,18.836,38.5254,16.5075,-0.013692,-0.01065446,0.0,0 STARLINK-4139,1 52879U 22062BB  22246.58334491 -.01065446  00000-0 -13692-1 0  9996,2 52879  53.2175  18.8360 0001520  38.5254  16.5075 15.60983597  1308,6762.9519999999975,92.25,385.845,383.789,0.0
52879.0,STARLINK-4139,PAYLOAD,2022-09-03 22:00:00,15.60223524,0.0001398,53.2174,17.2208,50.15,78.6643,-0.014081,-0.01064046,0.0,0 STARLINK-4139,1 52879U 22062BB  22246.91667824 -.01064046  00000-0 -14081-1 0  9990,2 52879  53.2174  17.2208 0001398  50.1500  78.6643 15.60223524  1305,6765.148,92.294,387.959,386.067,0.0
52879.0,STARLINK-4139,PAYLOAD,2022-09-04 06:00:00,15.59462956,0.0001527,53.2174,15.6055,46.8108,154.8733,-0.014475,-0.01062476,0.0,0 STARLINK-4139,1 52879U 22062BB  22247.25001157 -.01062476  00000-0 -14475-1 0  9991,2 52879  53.2174  15.6055 0001527  46.8108 154.8733 15.59462956 12881,6767.347,92.339,390.246,388.179,0.0
52879.0,STARLINK-4139,PAYLOAD,2022-09-04 14:00:01,15.58702622,0.000157,53.2175,13.9954,41.1318,232.5723,-0.0148729999999999,-0.01060607,0.0,0 STARLINK-4139,1 52879U 22062BB  22247.58335648 -.01060607  00000-0 -14873-1 0  9998,2 52879  53.2175  13.9954 0001570  41.1318 232.5723 15.58702622  1304,6769.5480000000025,92.385,392.476,390.35,0.0
52879.0,STARLINK-4139,PAYLOAD,2022-09-04 20:00:01,15.58131461,0.0001549,53.2172,12.7885,43.5262,193.4809,-0.015146,-0.01057192,0.0,0 STARLINK-4139,1 52879U 22062BB  22247.83334491 -.01057192  00000-0 -15146-1 0  9990,2 52879  53.2172  12.7885 0001549  43.5262 193.4809 15.58131461  1308,6771.2019999999975,92.418,394.116,392.018,0.0
52879.0,STARLINK-4139,PAYLOAD,2022-09-05 06:00:00,15.57183631,0.0001558,53.2173,10.7758,34.8986,19.9156,-0.015766,-0.01061336,0.0,0 STARLINK-4139,1 52879U 22062BB  22248.25001157 -.01061336  00000-0 -15766-1 0  9990,2 52879  53.2173  10.7758 0001558  34.8986  19.9156 15.57183631 13048,6773.95,92.475,396.87,394.759,0.0
52879.0,STARLINK-4139,PAYLOAD,2022-09-05 14:00:01,15.56452417,0.0001629,53.2172,9.1697,41.258,82.7586,-0.016796,-0.01096501,0.0,0 STARLINK-4139,1 52879U 22062BB  22248.58334491 -.01096501  00000-0 -16796-1 0  9992,2 52879  53.2172   9.1697 0001629  41.2580  82.7586 15.56452417  1303,6776.071,92.518,399.04,396.832,0.0
52879.0,STARLINK-4139,PAYLOAD,2022-09-05 22:00:00,15.55707084,0.0001648,53.2168,7.5657,37.6355,154.6807,-0.017641,-0.01117836,0.0,0 STARLINK-4139,1 52879U 22062BB  22248.91667824 -.01117836  00000-0 -17641-1 0  9993,2 52879  53.2168   7.5657 0001648  37.6355 154.6807 15.55707084  1303,6778.235,92.562,401.217,398.983,0.0
52879.0,STARLINK-4139,PAYLOAD,2022-09-06 06:00:00,15.54905096,0.0001486999999999,53.2173,5.9627,45.9293,213.8002,-0.017141,-0.01059928,0.0,0 STARLINK-4139,1 52879U 22062BB  22249.25001157 -.01059928  00000-0 -17141-1 0  9994,2 52879  53.2173   5.9627 0001487  45.9293 213.8002 15.54905096 13201,6780.566,92.61,403.439,401.422,0.0
52879.0,STARLINK-4139,PAYLOAD,2022-09-06 14:00:01,15.54158387,0.0001408,53.2175,4.3619,45.4168,280.7861,-0.017922,-0.01076428,0.0,0 STARLINK-4139,1 52879U 22062BB  22249.58334491 -.01076428  00000-0 -17922-1 0  9991,2 52879  53.2175   4.3619 0001408  45.4168 280.7861 15.54158387  1303,6782.736999999999,92.655,405.557,403.647,0.0
52879.0,STARLINK-4139,PAYLOAD,2022-09-06 22:00:00,15.53456015,0.0001849,53.217,2.7633,29.151,2.5886,-0.019762,-0.01149053,0.0,0 STARLINK-4139,1 52879U 22062BB  22249.91667824 -.01149053  00000-0 -19762-1 0  9996,2 52879  53.2170   2.7633 0001849  29.1510   2.5886 15.53456015  1300,6784.781999999997,92.697,407.901,405.392,0.0
52879.0,STARLINK-4139,PAYLOAD,2022-09-07 04:00:00,15.52815344,0.0001631999999999,53.2175,1.5653,30.8754,319.4781,-0.0184639999999999,-0.01057698,0.0,0 STARLINK-4139,1 52879U 22062BB  22250.16667824 -.01057698  00000-0 -18464-1 0  9996,2 52879  53.2175   1.5653 0001632  30.8754 319.4781 15.52815344 13347,6786.648,92.735,409.62,407.405,0.0
52879.0,STARLINK-4139,PAYLOAD,2022-09-07 14:00:01,15.51888735,0.0001815,53.2177,359.5709,40.0985,120.0628,-0.019665,-0.01086384,0.0,0 STARLINK-4139,1 52879U 22062BB  22250.58334491 -.01086384  00000-0 -19665-1 0  9991,2 52879  53.2177 359.5709 0001815  40.0985 120.0628 15.51888735  1301,6789.349,92.79,412.446,409.982,0.0
52879.0,STARLINK-4139,PAYLOAD,2022-09-07 22:00:00,15.51102662,0.0001675999999999,53.2172,357.9783,36.9865,186.0163,-0.0194699999999999,-0.01049162,0.0,0 STARLINK-4139,1 52879U 22062BB  22250.91667824 -.01049162  00000-0 -19470-1 0  9994,2 52879  53.2172 357.9783 0001676  36.9865 186.0163 15.51102662 13460,6791.642,92.837,414.646,412.369,0.0
52879.0,STARLINK-4139,PAYLOAD,2022-09-08 06:00:00,15.50247407,0.0001884,53.2174,356.3835,30.4282,254.5012,-0.0085017999999999,-0.00461554,0.0,0 STARLINK-4139,1 52879U 22062BB  22251.25001157 -.00461554  00000-0 -85018-2 0  9997,2 52879  53.2174 356.3835 0001884  30.4282 254.5012 15.50247407 13512,6794.14,92.888,417.285,414.725,0.0
